{
    "links": {
        "self": "http://www.neowsapp.com/rest/v1/neo/3578982?api_key=iIulBulltgU6a56xZRHN4H3l9WmuAYTsLGpBGhQ2"
    },
    "id": "3578982",
    "neo_reference_id": "3578982",
    "name": "(2011 SP32)",
    "designation": "2011 SP32",
    "nasa_jpl_url": "http://ssd.jpl.nasa.gov/sbdb.cgi?sstr=3578982",
    "absolute_magnitude_h": 23.6,
    "estimated_diameter": {
        "kilometers": {
            "estimated_diameter_min": 0.0506471459,
            "estimated_diameter_max": 0.1132504611
        },
        "meters": {
            "estimated_diameter_min": 50.6471458835,
            "estimated_diameter_max": 113.2504610618
        },
        "miles": {
            "estimated_diameter_min": 0.0314706677,
            "estimated_diameter_max": 0.0703705522
        },
        "feet": {
            "estimated_diameter_min": 166.1651821003,
            "estimated_diameter_max": 371.5566426699
        }
    },
    "is_potentially_hazardous_asteroid": false,
    "close_approach_data": [
        {
            "close_approach_date": "2011-09-14",
            "close_approach_date_full": "2011-Sep-14 18:51",
            "epoch_date_close_approach": 1316026260000,
            "relative_velocity": {
                "kilometers_per_second": "14.1949321513",
                "kilometers_per_hour": "51101.7557447891",
                "miles_per_hour": "31752.6437293107"
            },
            "miss_distance": {
                "astronomical": "0.055593188",
                "lunar": "21.625750132",
                "kilometers": "8316622.51130956",
                "miles": "5167709.598649528"
            },
            "orbiting_body": "Earth"
        }
    ],
    "orbital_data": {
        "orbit_id": "13",
        "orbit_determination_date": "2017-04-06 08:52:43",
        "first_observation_date": "2011-09-20",
        "last_observation_date": "2011-10-03",
        "data_arc_in_days": 13,
        "observations_used": 47,
        "orbit_uncertainty": "8",
        "minimum_orbit_intersection": ".0215863",
        "jupiter_tisserand_invariant": "3.433",
        "epoch_osculation": "2455828.5",
        "eccentricity": ".5910448416120242",
        "semi_major_axis": "2.175936102194179",
        "inclination": "2.954060556282357",
        "ascending_node_longitude": "10.33951152914418",
        "orbital_period": "1172.377928425984",
        "perihelion_distance": ".8898602933149353",
        "perihelion_argument": "288.4933855704546",
        "aphelion_distance": "3.462011911073423",
        "perihelion_time": "2455782.165279263219",
        "mean_anomaly": "14.22792007662251",
        "mean_motion": ".3070682168874762",
        "equinox": "J2000",
        "orbit_class": {
            "orbit_class_type": "APO",
            "orbit_class_description": "Near-Earth asteroid orbits which cross the Earth’s orbit similar to that of 1862 Apollo",
            "orbit_class_range": "a (semi-major axis) > 1.0 AU; q (perihelion) < 1.017 AU"
        }
    },
    "is_sentry_object": false
}